[{"OBJECT_NAME":"EDISON-1","OBJECT_ID":"2025-009B","EPOCH":"2026-03-09T19:16:13.822464","MEAN_MOTION":15.29042904,"ECCENTRICITY":0.00043285,"INCLINATION":97.4042,"RA_OF_ASC_NODE":151.6286,"ARG_OF_PERICENTER":306.4185,"MEAN_ANOMALY":53.6655,"EPHEMERIS_TYPE":0,"CLASSIFICATION_TYPE":"U","NORAD_CAT_ID":62610,"ELEMENT_SET_NO":999,"REV_AT_EPOCH":6375,"BSTAR":0.00052814963,"MEAN_MOTION_DOT":0.00014835,"MEAN_MOTION_DDOT":0},{"OBJECT_NAME":"STARLINK-33947","OBJECT_ID":"2025-091N","EPOCH":"2026-03-09T22:10:00.570144","MEAN_MOTION":15.276434,"ECCENTRICITY":0.0001886,"INCLINATION":43.0021,"RA_OF_ASC_NODE":51.5792,"ARG_OF_PERICENTER":287.9526,"MEAN_ANOMALY":72.112,"EPHEMERIS_TYPE":0,"CLASSIFICATION_TYPE":"U","NORAD_CAT_ID":63787,"ELEMENT_SET_NO":999,"REV_AT_EPOCH":4893,"BSTAR":0.0013772645,"MEAN_MOTION_DOT":0.00037906,"MEAN_MOTION_DDOT":0}]
